[{"OBJECT_NAME":"TIANMU-1 08","OBJECT_ID":"2023-101B","EPOCH":"2026-03-07T00:03:25.475616","MEAN_MOTION":15.29204229,"ECCENTRICITY":0.00063808,"INCLINATION":97.2717,"RA_OF_ASC_NODE":118.7901,"ARG_OF_PERICENTER":134.2174,"MEAN_ANOMALY":225.9592,"EPHEMERIS_TYPE":0,"CLASSIFICATION_TYPE":"U","NORAD_CAT_ID":57400,"ELEMENT_SET_NO":999,"REV_AT_EPOCH":14602,"BSTAR":1.4774513e-5,"MEAN_MOTION_DOT":3.46e-6,"MEAN_MOTION_DDOT":0},{"OBJECT_NAME":"STARLINK-36538","OBJECT_ID":"2026-012V","EPOCH":"2026-03-09T23:32:14.919072","MEAN_MOTION":15.27590595,"ECCENTRICITY":0.00018041,"INCLINATION":43.0049,"RA_OF_ASC_NODE":312.9874,"ARG_OF_PERICENTER":285.501,"MEAN_ANOMALY":74.5643,"EPHEMERIS_TYPE":0,"CLASSIFICATION_TYPE":"U","NORAD_CAT_ID":67512,"ELEMENT_SET_NO":999,"REV_AT_EPOCH":780,"BSTAR":0.001154163,"MEAN_MOTION_DOT":0.00031645,"MEAN_MOTION_DDOT":0}]
